SAR-LUPE 2              
1 31797U 07030A   26168.15301522  .00027678  00000+0  49395-3 0  9991
2 31797  98.1047 272.5807 0005202 145.3480 214.8109 15.50032296 56934
SAPPHIRE                
1 39088U 13009C   26168.09214455  .00000082  00000+0  43583-4 0  9990
2 39088  98.4260 347.5502 0010076 246.9203 113.0921 14.35240568696562
PRAETORIAN SDA_602      
1 65565U 25203A   26168.09630764  .00000058  00000+0  41337-4 0  9991
2 65565  81.3031  10.8528 0005764 184.1977 175.9132 13.84342809 38683
PRAETORIAN SDA_603      
1 65566U 25203B   26168.05066852  .00000148  00000+0  12299-3 0  9993
2 65566  81.3038  10.8120 0009314 187.6481 172.4535 13.83905235 38688
PRAETORIAN SDA_604      
1 65567U 25203C   26168.07029964  .00000049  00000+0  34046-4 0  9994
2 65567  81.3053  11.2056 0005248 191.8697 168.2337 13.83047454 38668
PRAETORIAN SDA_605      
1 65568U 25203D   26168.03566550  .00000042  00000+0  27574-4 0  9999
2 65568  81.3018  10.9008 0008073 183.3861 176.7242 13.83434153 38677
PRAETORIAN SDA_606      
1 65569U 25203E   26168.09053390  .00000053  00000+0  37342-4 0  9995
2 65569  81.3055  11.0718 0005728 181.0825 179.0320 13.83407359 38679
PRAETORIAN SDA_607      
1 65570U 25203F   26168.09862947  .00000150  00000+0  12327-3 0  9996
2 65570  81.3038  10.7273 0008698 187.6361 172.4665 13.84284277 38694
PRAETORIAN SDA_608      
1 65571U 25203G   26168.07599734  .00000053  00000+0  36986-4 0  9996
2 65571  81.3006  10.9103 0005760 191.0550 169.0480 13.83816837 38677
PRAETORIAN SDA_609      
1 65572U 25203H   26168.08093530  .00000140  00000+0  11445-3 0  9990
2 65572  81.3048  10.8890 0006728 185.4233 174.6852 13.84212395 38682
PRAETORIAN SDA_610      
1 65573U 25203J   26168.05575552  .00000042  00000+0  26860-4 0  9996
2 65573  81.3007  10.8870 0006423 188.8510 171.2534 13.83851859 38675
PRAETORIAN SDA_611      
1 65574U 25203K   26168.05648491  .00000052  00000+0  36679-4 0  9990
2 65574  81.3009  11.0515 0005259 195.0394 165.0606 13.83309435 38661
PRAETORIAN SDA_612      
1 65575U 25203L   26168.04626341  .00000111  00000+0  87902-4 0  9991
2 65575  81.3031  10.6487 0008985 187.0075 173.0958 13.85038657 38695
PRAETORIAN SDA_613      
1 65576U 25203M   26168.06317969  .00000042  00000+0  27731-4 0  9994
2 65576  81.2998  11.0426 0005548 184.1730 175.9381 13.82765003 38660
PRAETORIAN SDA_614      
1 65577U 25203N   26168.03541126  .00000025  00000+0  11511-4 0  9996
2 65577  81.3014  10.7359 0006990 184.1184 175.9917 13.84777952 38693
PRAETORIAN SDA_615      
1 65578U 25203P   26168.08453308  .00000068  00000+0  49676-4 0  9996
2 65578  81.3023  10.6543 0008887 185.4099 174.6963 13.84436553 38690
PRAETORIAN SDA_616      
1 65579U 25203Q   26168.05569503  .00000163  00000+0  13810-3 0  9995
2 65579  81.3063  11.1978 0005213 192.7287 167.3738 13.83267934 38663
PRAETORIAN SDA_617      
1 65580U 25203R   26168.07728764  .00000027  00000+0  13552-4 0  9998
2 65580  81.3037  11.0090 0007248 184.3857 175.7237 13.83150011 38675
PRAETORIAN SDA_618      
1 65581U 25203S   26168.05060120  .00000081  00000+0  61857-4 0  9993
2 65581  81.3023  10.6155 0009572 188.0537 172.0468 13.84669644 38692
PRAETORIAN SDA_619      
1 65582U 25203T   26168.08646291  .00000137  00000+0  11331-3 0  9999
2 65582  81.3046  10.8789 0008077 185.6599 174.4467 13.83805873 39313
PRAETORIAN SDA_620      
1 65583U 25203U   26168.04212466  .00000168  00000+0  14150-3 0  9995
2 65583  81.3031  10.9407 0007505 181.4574 178.6562 13.83618256 38675
PRAETORIAN SDA_621      
1 65584U 25203V   26168.01593103  .00000055  00000+0  38579-4 0  9990
2 65584  81.3021  10.8831 0007346 179.0345 181.0827 13.83801233 38678
PRAETORIAN SDA_601      
1 65585U 25203W   26168.05882091  .00000083  00000+0  64631-4 0  9991
2 65585  81.3036  11.1392 0005189 195.8487 164.2508 13.83167741 38664
